TIANZHOU-7              
1 58811U 24013A   24034.70486427  .00015997  00000+0  17408-3 0  9997
2 58811  41.4671 184.8070 0008492 294.2206  65.7746 15.63039622158044
CZ-7 DEB                
1 58813U 24013C   24018.11402078 -.00002294  72670-5  00000+0 0  9997
2 58813  41.8298 285.9373 0234014 181.6233 328.2070 15.73710950    93
CZ-7 DEB                
1 58814U 24013D   24018.11444661 -.00002240  70950-5  00000+0 0  9992
2 58814  41.6413 286.0086 0240306 187.1577 323.2676 15.72861586    84
AXIOM-3                 
1 58815U 24014A   24034.68068535  .00013418  00000+0  24713-3 0  9998
2 58815  51.6409 261.8899 0002386 190.5057 272.8681 15.49479907437691
STARLINK-31138          
1 58806U 24012V   24035.25002315 -.01703145  00000+0 -23778-1 0  9998
2 58806  42.9996 155.8659 0001470 260.0274   6.8026 15.59002293  4417
STARLINK-31163          
1 58807U 24012W   24035.25002315 -.01701606  00000+0 -23757-1 0  9996
2 58807  42.9997 155.8633 0001441 258.8138   8.8751 15.58999294  4415
STARLINK-31174          
1 58808U 24012X   24035.25002315 -.01702755  00000+0 -23774-1 0  9992
2 58808  42.9996 155.8607 0001599 258.5885   9.9577 15.58998823  4411
STARLINK-31169          
1 58809U 24012Y   24035.25002315 -.01703601  00000+0 -23787-1 0  9998
2 58809  42.9995 155.8594 0001721 261.2496   8.1542 15.58997844  4417
NANOFF A                
1 58810U 23185T   24029.79184023  .00004237  00000+0  32841-3 0  9998
2 58810  97.6416  98.6894 0013698  49.2557  46.4273 15.01865590  2064
DALIAN-1 LIANLI         
1 58816U 23063C   24029.78296075  .00121385  00000+0  11155-2 0  9997
2 58816  41.4674 214.5252 0011520 239.0941 239.9411 15.66444064  1745
SORAYA                  
1 58817U 24015A   24035.15771627  .00000111  00000+0  66260-4 0  9997
2 58817  64.5134  69.5119 0011338 256.1595 103.8228 14.41908486  2151
QAEM 100 R/B            
1 58818U 24015B   24034.79689675  .00000268  00000+0  11120-3 0  9995
2 58818  64.5027  70.4466 0012182 288.7929  71.1835 14.43303843  2103
QAEM 100 DEB            
1 58819U 24015C   24028.55774234  .00054227  00000+0  15623-1 0  9993
2 58819  64.4782  88.5570 0010930 314.2129  45.8058 14.44281846  1162
2024-016A               
1 58820U 24016A   24035.13098127  .00012109  00000+0  71972-3 0  9992
2 58820  97.5239 111.2768 0013470 240.3359 119.6530 15.11350539  1815
