[
  {
    "OBJECT_NAME": "STARLINK-31138",
    "OBJECT_ID": "2024-012V",
    "EPOCH": "2024-02-04T06:00:02.000160",
    "MEAN_MOTION": 15.59002293,
    "ECCENTRICITY": 0.000147,
    "INCLINATION": 42.9996,
    "RA_OF_ASC_NODE": 155.8659,
    "ARG_OF_PERICENTER": 260.0274,
    "MEAN_ANOMALY": 6.8026,
    "EPHEMERIS_TYPE": 0,
    "CLASSIFICATION_TYPE": "U",
    "NORAD_CAT_ID": 58806,
    "ELEMENT_SET_NO": 999,
    "REV_AT_EPOCH": 441,
    "BSTAR": -0.023778,
    "MEAN_MOTION_DOT": -0.01703145,
    "MEAN_MOTION_DDOT": 0
  },
  {
    "OBJECT_NAME": "STARLINK-31163",
    "OBJECT_ID": "2024-012W",
    "EPOCH": "2024-02-04T06:00:02.000160",
    "MEAN_MOTION": 15.58999294,
    "ECCENTRICITY": 0.0001441,
    "INCLINATION": 42.9997,
    "RA_OF_ASC_NODE": 155.8633,
    "ARG_OF_PERICENTER": 258.8138,
    "MEAN_ANOMALY": 8.8751,
    "EPHEMERIS_TYPE": 0,
    "CLASSIFICATION_TYPE": "U",
    "NORAD_CAT_ID": 58807,
    "ELEMENT_SET_NO": 999,
    "REV_AT_EPOCH": 441,
    "BSTAR": -0.023757,
    "MEAN_MOTION_DOT": -0.01701606,
    "MEAN_MOTION_DDOT": 0
  },
  {
    "OBJECT_NAME": "STARLINK-31174",
    "OBJECT_ID": "2024-012X",
    "EPOCH": "2024-02-04T06:00:02.000160",
    "MEAN_MOTION": 15.58998823,
    "ECCENTRICITY": 0.0001599,
    "INCLINATION": 42.9996,
    "RA_OF_ASC_NODE": 155.8607,
    "ARG_OF_PERICENTER": 258.5885,
    "MEAN_ANOMALY": 9.9577,
    "EPHEMERIS_TYPE": 0,
    "CLASSIFICATION_TYPE": "U",
    "NORAD_CAT_ID": 58808,
    "ELEMENT_SET_NO": 999,
    "REV_AT_EPOCH": 441,
    "BSTAR": -0.023774,
    "MEAN_MOTION_DOT": -0.01702755,
    "MEAN_MOTION_DDOT": 0
  },
  {
    "OBJECT_NAME": "STARLINK-31169",
    "OBJECT_ID": "2024-012Y",
    "EPOCH": "2024-02-04T06:00:02.000160",
    "MEAN_MOTION": 15.58997844,
    "ECCENTRICITY": 0.0001721,
    "INCLINATION": 42.9995,
    "RA_OF_ASC_NODE": 155.8594,
    "ARG_OF_PERICENTER": 261.2496,
    "MEAN_ANOMALY": 8.1542,
    "EPHEMERIS_TYPE": 0,
    "CLASSIFICATION_TYPE": "U",
    "NORAD_CAT_ID": 58809,
    "ELEMENT_SET_NO": 999,
    "REV_AT_EPOCH": 441,
    "BSTAR": -0.023787,
    "MEAN_MOTION_DOT": -0.01703601,
    "MEAN_MOTION_DDOT": 0
  },
  {
    "OBJECT_NAME": "NANOFF A",
    "OBJECT_ID": "2023-185T",
    "EPOCH": "2024-01-29T19:00:14.995872",
    "MEAN_MOTION": 15.0186559,
    "ECCENTRICITY": 0.0013698,
    "INCLINATION": 97.6416,
    "RA_OF_ASC_NODE": 98.6894,
    "ARG_OF_PERICENTER": 49.2557,
    "MEAN_ANOMALY": 46.4273,
    "EPHEMERIS_TYPE": 0,
    "CLASSIFICATION_TYPE": "U",
    "NORAD_CAT_ID": 58810,
    "ELEMENT_SET_NO": 999,
    "REV_AT_EPOCH": 206,
    "BSTAR": 0.00032841,
    "MEAN_MOTION_DOT": 4.237e-05,
    "MEAN_MOTION_DDOT": 0
  },
  {
    "OBJECT_NAME": "TIANZHOU-7",
    "OBJECT_ID": "2024-013A",
    "EPOCH": "2024-02-03T16:55:00.272928",
    "MEAN_MOTION": 15.63039622,
    "ECCENTRICITY": 0.0008492,
    "INCLINATION": 41.4671,
    "RA_OF_ASC_NODE": 184.807,
    "ARG_OF_PERICENTER": 294.2206,
    "MEAN_ANOMALY": 65.7746,
    "EPHEMERIS_TYPE": 0,
    "CLASSIFICATION_TYPE": "U",
    "NORAD_CAT_ID": 58811,
    "ELEMENT_SET_NO": 999,
    "REV_AT_EPOCH": 15804,
    "BSTAR": 0.00017408,
    "MEAN_MOTION_DOT": 0.00015997,
    "MEAN_MOTION_DDOT": 0
  },
  {
    "OBJECT_NAME": "CZ-7 DEB",
    "OBJECT_ID": "2024-013C",
    "EPOCH": "2024-01-18T02:44:11.395392",
    "MEAN_MOTION": 15.7371095,
    "ECCENTRICITY": 0.0234014,
    "INCLINATION": 41.8298,
    "RA_OF_ASC_NODE": 285.9373,
    "ARG_OF_PERICENTER": 181.6233,
    "MEAN_ANOMALY": 328.207,
    "EPHEMERIS_TYPE": 0,
    "CLASSIFICATION_TYPE": "U",
    "NORAD_CAT_ID": 58813,
    "ELEMENT_SET_NO": 999,
    "REV_AT_EPOCH": 9,
    "BSTAR": 0,
    "MEAN_MOTION_DOT": -2.294e-05,
    "MEAN_MOTION_DDOT": 7.267e-06
  },
  {
    "OBJECT_NAME": "CZ-7 DEB",
    "OBJECT_ID": "2024-013D",
    "EPOCH": "2024-01-18T02:44:48.187104",
    "MEAN_MOTION": 15.72861586,
    "ECCENTRICITY": 0.0240306,
    "INCLINATION": 41.6413,
    "RA_OF_ASC_NODE": 286.0086,
    "ARG_OF_PERICENTER": 187.1577,
    "MEAN_ANOMALY": 323.2676,
    "EPHEMERIS_TYPE": 0,
    "CLASSIFICATION_TYPE": "U",
    "NORAD_CAT_ID": 58814,
    "ELEMENT_SET_NO": 999,
    "REV_AT_EPOCH": 8,
    "BSTAR": 0,
    "MEAN_MOTION_DOT": -2.24e-05,
    "MEAN_MOTION_DDOT": 7.095e-06
  },
  {
    "OBJECT_NAME": "AXIOM-3",
    "OBJECT_ID": "2024-014A",
    "EPOCH": "2024-02-03T16:20:11.214240",
    "MEAN_MOTION": 15.49479907,
    "ECCENTRICITY": 0.0002386,
    "INCLINATION": 51.6409,
    "RA_OF_ASC_NODE": 261.8899,
    "ARG_OF_PERICENTER": 190.5057,
    "MEAN_ANOMALY": 272.8681,
    "EPHEMERIS_TYPE": 0,
    "CLASSIFICATION_TYPE": "U",
    "NORAD_CAT_ID": 58815,
    "ELEMENT_SET_NO": 999,
    "REV_AT_EPOCH": 43769,
    "BSTAR": 0.00024713,
    "MEAN_MOTION_DOT": 0.00013418,
    "MEAN_MOTION_DDOT": 0
  },
  {
    "OBJECT_NAME": "DALIAN-1 LIANLI",
    "OBJECT_ID": "2023-063C",
    "EPOCH": "2024-01-29T18:47:27.808800",
    "MEAN_MOTION": 15.66444064,
    "ECCENTRICITY": 0.001152,
    "INCLINATION": 41.4674,
    "RA_OF_ASC_NODE": 214.5252,
    "ARG_OF_PERICENTER": 239.0941,
    "MEAN_ANOMALY": 239.9411,
    "EPHEMERIS_TYPE": 0,
    "CLASSIFICATION_TYPE": "U",
    "NORAD_CAT_ID": 58816,
    "ELEMENT_SET_NO": 999,
    "REV_AT_EPOCH": 174,
    "BSTAR": 0.0011155,
    "MEAN_MOTION_DOT": 0.00121385,
    "MEAN_MOTION_DDOT": 0
  },
  {
    "OBJECT_NAME": "SORAYA",
    "OBJECT_ID": "2024-015A",
    "EPOCH": "2024-02-04T03:47:06.685728",
    "MEAN_MOTION": 14.41908486,
    "ECCENTRICITY": 0.0011338,
    "INCLINATION": 64.5134,
    "RA_OF_ASC_NODE": 69.5119,
    "ARG_OF_PERICENTER": 256.1595,
    "MEAN_ANOMALY": 103.8228,
    "EPHEMERIS_TYPE": 0,
    "CLASSIFICATION_TYPE": "U",
    "NORAD_CAT_ID": 58817,
    "ELEMENT_SET_NO": 999,
    "REV_AT_EPOCH": 215,
    "BSTAR": 6.626e-05,
    "MEAN_MOTION_DOT": 1.11e-06,
    "MEAN_MOTION_DDOT": 0
  },
  {
    "OBJECT_NAME": "QAEM 100 R/B",
    "OBJECT_ID": "2024-015B",
    "EPOCH": "2024-02-03T19:07:31.879200",
    "MEAN_MOTION": 14.43303843,
    "ECCENTRICITY": 0.0012182,
    "INCLINATION": 64.5027,
    "RA_OF_ASC_NODE": 70.4466,
    "ARG_OF_PERICENTER": 288.7929,
    "MEAN_ANOMALY": 71.1835,
    "EPHEMERIS_TYPE": 0,
    "CLASSIFICATION_TYPE": "U",
    "NORAD_CAT_ID": 58818,
    "ELEMENT_SET_NO": 999,
    "REV_AT_EPOCH": 210,
    "BSTAR": 0.0001112,
    "MEAN_MOTION_DOT": 2.68e-06,
    "MEAN_MOTION_DDOT": 0
  },
  {
    "OBJECT_NAME": "QAEM 100 DEB",
    "OBJECT_ID": "2024-015C",
    "EPOCH": "2024-01-28T13:23:08.938176",
    "MEAN_MOTION": 14.44281846,
    "ECCENTRICITY": 0.001093,
    "INCLINATION": 64.4782,
    "RA_OF_ASC_NODE": 88.557,
    "ARG_OF_PERICENTER": 314.2129,
    "MEAN_ANOMALY": 45.8058,
    "EPHEMERIS_TYPE": 0,
    "CLASSIFICATION_TYPE": "U",
    "NORAD_CAT_ID": 58819,
    "ELEMENT_SET_NO": 999,
    "REV_AT_EPOCH": 116,
    "BSTAR": 0.015623,
    "MEAN_MOTION_DOT": 0.00054227,
    "MEAN_MOTION_DDOT": 0
  },
  {
    "OBJECT_NAME": "2024-016A",
    "OBJECT_ID": "2024-016A",
    "EPOCH": "2024-02-04T03:08:36.781728",
    "MEAN_MOTION": 15.11350539,
    "ECCENTRICITY": 0.001347,
    "INCLINATION": 97.5239,
    "RA_OF_ASC_NODE": 111.2768,
    "ARG_OF_PERICENTER": 240.3359,
    "MEAN_ANOMALY": 119.653,
    "EPHEMERIS_TYPE": 0,
    "CLASSIFICATION_TYPE": "U",
    "NORAD_CAT_ID": 58820,
    "ELEMENT_SET_NO": 999,
    "REV_AT_EPOCH": 181,
    "BSTAR": 0.00071972,
    "MEAN_MOTION_DOT": 0.00012109,
    "MEAN_MOTION_DDOT": 0
  }
]